94P/Russell,e,6.1878,70.8525,92.4106,3.510324,0.1498592,0.36558195,21.4223,10/11.0/2023,2000,g  9.0,6.0
# From MPC 75717
95P/Chiron,e,6.9220,209.2001,339.4549,13.71282,0.0194095,0.37641272,197.5123,10/11.0/2023,2000,g  6.5,2.0
# From MPEC 2023-N01
96P/Machholz,e,57.5218,93.9530,14.7455,3.030657,0.1868095,0.96159960,47.2465,10/11.0/2023,2000,g 13.0,4.8
# From MPC106348
96P-B/Machholz,e,57.5064,14.7412,93.9467,3.030246,0.1868475,0.96159522,47.2558,10/11.0/2023,2000,g 13.0,4.8
# From MPC103849
96P-C/Machholz,e,58.5311,94.3495,15.5380,3.011920,0.1885553,0.95889850,359.8715,07/14.0/2012,2000,g  9.0,4.0
# From MPEC 2022-C56
97P/Metcalf-Brewington,e,17.9506,184.1174,230.0200,4.764641,0.0947674,0.46030831,57.0624,10/11.0/2023,2000,g  5.5,6.0
# From MPEC 2021-W31
98P/Takamizawa,e,10.5656,114.6558,157.7576,3.791374,0.1335086,0.56234993,134.8115,10/11.0/2023,2000,g  9.0,8.0
# From MPEC 2023-RF3
99P/Kowal,e,4.3396,28.0993,174.7364,6.098623,0.0654420,0.22855307,35.8779,10/11.0/2023,2000,g  4.5,6.0
# From MPEC 2023-OA6
100P/Hartley,e,25.5668,37.6873,181.9619,3.430651,0.1551098,0.41180846,66.0967,10/11.0/2023,2000,g  9.0,8.0
# From MPEC 2022-K19
101P/Chernykh,e,5.0499,116.2525,277.7636,5.811640,0.0703487,0.59638015,96.1363,10/11.0/2023,2000,g 10.0,4.8
# From MPC105241
101P-B/Chernykh,e,5.0500,278.5740,115.4445,5.827104,0.0700688,0.59659140,94.5077,10/11.0/2023,2000,g  9.0,4.0
# From MPEC 2022-C56
102P/Shoemaker,e,25.8777,339.4118,20.6454,3.817697,0.1321301,0.45685406,130.9939,10/11.0/2023,2000,g  6.5,8.0
# From MPEC 2023-T65
103P/Hartley,e,13.6107,219.7497,181.3017,3.475584,0.1521116,0.69383804,359.7699,10/11.0/2023,2000,g  8.5,8.0
# From MPEC 2023-G31
104P/Kowal,e,5.7034,207.2095,227.2492,3.208547,0.1714911,0.66579845,109.2744,10/11.0/2023,2000,g 16.0,4.0
# From MPC109147
105P/Singer Brewster,e,9.1679,192.3642,46.4205,3.470594,0.1524398,0.40883941,288.3653,10/11.0/2023,2000,g 11.5,6.0
# From MPEC 2022-GA9
106P/Schuster,e,19.5369,48.8876,353.7248,3.766381,0.1348397,0.59398854,105.5786,10/11.0/2023,2000,g 14.0,4.8
# From MPEC 2015-M77
107P/Wilson-Harrington,e,2.7988,266.7634,95.4717,2.624904,0.2317576,0.63155907,95.5675,10/11.0/2023,2000,g  9.0,4.0
# From MPEC 2022-P82
108P/Ciffreo,e,11.4363,50.2975,354.4803,3.741847,0.1361680,0.55613319,103.5778,10/11.0/2023,2000,g  8.0,12.0
# From  105, 420
109P/Swift-Tuttle,e,13.7477,139.3189,153.0295,26.20247,0.0073484,0.96214728,82.7646,10/11.0/2023,2000,g  4.0,6.0
# From MPEC 2023-KD6
110P/Hartley,e,11.7059,287.5014,167.4789,3.603861,0.1440629,0.31888605,104.0800,10/11.0/2023,2000,g  1.0,12.0
# From MPC 75718
111P/Helin-Roman-Crockett,e,4.2257,89.8178,1.1114,4.151591,0.1165151,0.10703864,98.5568,10/11.0/2023,2000,g  5.0,8.0
# From MPEC 2021-S45
112P/Urata-Niijima,e,24.2119,31.8375,21.4825,3.523941,0.1489914,0.59077655,199.6095,10/11.0/2023,2000,g 14.0,6.0
# From MPEC 2023-HD1
113P/Spitaler,e,5.2884,306.6692,115.5890,3.693332,0.1388598,0.41995265,68.9262,10/11.0/2023,2000,g 14.9,4.0
# From MPEC 2023-A50
114P/Wiseman-Skiff,e,18.2968,271.0229,172.7533,3.542168,0.1478429,0.55575656,201.8093,10/11.0/2023,2000,g 11.5,6.0
# From MPEC 2023-J29
115P/Maury,e,11.6772,176.0102,120.9918,4.272257,0.1116138,0.51768669,130.5157,10/11.0/2023,2000,g 10.5,6.0
# From MPEC 2023-T65
116P/Wild,e,3.6034,20.9759,173.2289,3.488270,0.1512826,0.37030789,68.2709,10/11.0/2023,2000,g  2.5,10.0
# From MPEC 2023-T65
117P/Helin-Roman-Alu,e,8.7046,58.8208,223.2459,4.088521,0.1192216,0.25598708,54.7080,10/11.0/2023,2000,g  2.5,8.0
# From MPEC 2023-N01
118P/Shoemaker-Levy,e,10.0908,142.0933,314.8605,3.347649,0.1609141,0.45363753,51.5895,10/11.0/2023,2000,g 12.0,4.0
# From MPEC 2023-M14
119P/Parker-Hartley,e,7.3925,104.5652,322.1293,3.806338,0.1327220,0.38837411,56.3812,10/11.0/2023,2000,g 12.5,4.0
# From MPEC 2022-CN4
120P/Mueller,e,8.4887,358.7246,36.6756,3.967026,0.1247402,0.37484264,110.5507,10/11.0/2023,2000,g 12.0,4.0
# From MPEC 2023-D41
121P/Shoemaker-Holt,e,20.1638,94.1141,11.6873,4.584708,0.1004006,0.18635703,10.4488,10/11.0/2023,2000,g  6.5,8.0
# From MPC 75718
122P/de Vico,e,85.8303,79.7069,12.9898,17.62601,0.0133190,0.96240566,136.5725,10/11.0/2023,2000,g  7.5,5.2
# From MPEC 2021-F20
123P/West-Hartley,e,15.2788,45.9088,104.0403,3.881092,0.1289060,0.44425431,221.0468,10/11.0/2023,2000,g 12.2,4.0
# From MPEC 2023-T65
124P/Mrkos,e,31.4931,0.0962,185.2176,3.371306,0.1592233,0.48736127,202.8917,10/11.0/2023,2000,g 13.5,2.8
# From MPEC 2022-YB4
125P/Spacewatch,e,9.9852,153.1525,87.1475,3.128945,0.1780767,0.51209576,333.5896,10/11.0/2023,2000,g 13.0,6.0
# From MPEC 2023-T65
126P/IRAS,e,45.8725,357.8693,356.5912,5.637277,0.0736377,0.69657339,7.1931,10/11.0/2023,2000,g  6.0,8.0
# From MPEC 2023-D41
127P/Holt-Olmstead,e,14.3011,13.6047,6.2849,3.452337,0.1536506,0.35939748,65.5452,10/11.0/2023,2000,g 11.0,6.0
# From MPC 89014
128P/Shoemaker-Holt,e,4.3704,214.3432,210.3116,4.486545,0.1037137,0.32224514,255.3261,10/11.0/2023,2000,g  8.5,4.0
# From MPEC 2023-M14
129P/Shoemaker-Levy,e,3.4425,184.8607,307.4644,4.290451,0.1109046,0.08534044,34.9101,10/11.0/2023,2000,g 11.0,4.0
# From MPEC 2023-M14
130P/McNaught-Hughes,e,6.0635,70.1786,246.1211,3.382015,0.1584677,0.46097619,330.3882,10/11.0/2023,2000,g 10.0,6.0
# From MPC102101
131P/Mueller,e,7.3608,214.1789,179.0876,3.677638,0.1397496,0.34490284,240.0699,10/11.0/2023,2000,g 11.0,4.0
# From MPEC 2022-TD3
132P/Helin-Roman-Alu,e,5.3825,174.0330,216.3924,3.889573,0.1284847,0.56469268,89.5212,10/11.0/2023,2000,g 11.0,6.0
# From MPC 94676
133P/Elst-Pizarro,e,1.3897,160.1038,131.9167,3.164990,0.1750434,0.15618807,322.8340,10/11.0/2023,2000,g 15.4,2.0
# From MPC 89012
134P/Kowal-Vavrova,e,4.3348,202.0113,18.8151,6.266290,0.0628331,0.58498825,216.3279,10/11.0/2023,2000,g 11.5,4.0
# From MPEC 2022-OB6
135P/Shoemaker-Levy,e,6.0636,213.0220,22.3710,3.800112,0.1330483,0.29443290,73.3904,10/11.0/2023,2000,g  7.0,8.0
# From MPEC 2022-K19
136P/Mueller,e,9.4269,137.4997,225.1167,4.187385,0.1150243,0.29336641,308.2322,10/11.0/2023,2000,g 11.0,4.0
# From MPEC 2023-J29
137P/Shoemaker-Levy,e,4.8598,232.9302,141.2006,4.521919,0.1024991,0.57375490,180.4685,10/11.0/2023,2000,g 11.0,4.0
# From MPEC 2016-U66
138P/Shoemaker-Levy,e,10.0943,309.3062,95.5936,3.619431,0.1431343,0.53158018,231.8827,10/11.0/2023,2000,g 15.0,6.0
# From MPEC 2020-HN5
139P/Vaisala-Oterma,e,2.3370,242.1785,165.7966,4.516969,0.1026676,0.24824198,218.3544,10/11.0/2023,2000,g  9.5,4.0
# From MPEC 2015-E14
140P/Bowell-Skiff,e,3.8216,343.2771,172.5090,6.406907,0.0607759,0.69564798,182.0108,10/11.0/2023,2000,g 11.5,6.0
# From MPEC 2022-K19
141P/Machholz,e,13.9535,241.8128,153.5928,3.057569,0.1843486,0.73611746,189.5389,10/11.0/2023,2000,g 12.0,12.0
# From MPEC 2015-KD9
141P-A/Machholz,e,13.9454,153.5715,241.8484,3.057707,0.1843360,0.73610992,189.4933,10/11.0/2023,2000,g 12.0,12.0
# From MPC 24216
141P-B/Machholz,e,13.9893,153.6471,241.7377,3.056103,0.1844812,0.73586735,190.8299,10/11.0/2023,2000,g  9.0,4.0
# From MPC 37026
141P-D/Machholz,e,13.8375,153.2986,242.0959,3.066143,0.1835758,0.73706666,185.5669,10/11.0/2023,2000,g  9.0,4.0
# From MPEC 2015-R12
141P-E/Machholz,e,12.8152,246.1856,149.2667,3.012914,0.1884620,0.75023267,359.9529,09/19.0/1994,2000,g  9.0,4.0
# From MPEC 2015-R12
141P-F/Machholz,e,12.7898,246.1881,149.2374,3.010224,0.1887147,0.75000946,359.9630,09/19.0/1994,2000,g  9.0,4.0
# From MPEC 2015-R12
141P-G/Machholz,e,12.8259,246.3146,149.0784,3.005818,0.1891298,0.74964304,359.9802,09/19.0/1994,2000,g  9.0,4.0
# From MPC 95735
141P-H/Machholz,e,12.8431,246.0900,149.4500,3.008012,0.1889230,0.74682218,359.9270,08/24.0/2015,2000,g 18.5,4.0
# From MPEC 2022-SU8
141P-I/Machholz,e,13.9453,153.5257,241.8587,3.048193,0.1851997,0.73533494,190.4943,10/11.0/2023,2000,g 17.5,4.0
# From MPEC 2021-Y10
142P/Ge-Wang,e,12.2508,175.9700,174.0259,5.001750,0.0881092,0.49685261,77.6564,10/11.0/2023,2000,g  8.5,6.0
# From MPEC 2023-J29
143P/Kowal-Mrkos,e,4.8035,244.4667,320.5804,4.260557,0.1120739,0.41879911,222.4469,10/11.0/2023,2000,g 13.5,2.0
# From MPEC 2023-T65
144P/Kushida,e,3.9316,242.9260,216.3205,3.832568,0.1313618,0.63501540,345.9748,10/11.0/2023,2000,g  8.5,8.0
# From MPC108598
145P/Shoemaker-Levy,e,11.2787,26.8196,10.2847,4.134202,0.1172510,0.54259076,261.0767,10/11.0/2023,2000,g 13.5,4.0
# From MPC100284
146P/Shoemaker-LINEAR,e,23.1171,53.4200,317.0108,4.027387,0.1219464,0.64749508,323.4811,10/11.0/2023,2000,g 15.0,4.0
# From MPC 75720
147P/Kushida-Muramatsu,e,2.2910,92.1173,348.0961,4.014610,0.1225290,0.21322471,353.0116,10/11.0/2023,2000,g 14.0,4.0
# From MPEC 2023-HD1
148P/Anderson-LINEAR,e,3.6583,89.2001,8.0446,3.619414,0.1431353,0.55012136,69.3111,10/11.0/2023,2000,g 16.2,4.0
# From MPEC 2023-J29
149P/Mueller,e,34.2505,143.8788,30.4476,4.123231,0.1177193,0.32435542,222.9498,10/11.0/2023,2000,g  8.0,8.0
# From MPEC 2023-SQ0
150P/LONEOS,e,18.5470,272.0593,246.1010,3.869943,0.1294635,0.54891322,340.1347,10/11.0/2023,2000,g 13.5,4.0
# From MPEC 2022-K19
151P/Helin,e,4.7289,143.1802,216.1098,5.763445,0.0712329,0.57356810,207.8822,10/11.0/2023,2000,g 10.0,6.0
# From MPEC 2023-T65
152P/Helin-Lawrence,e,9.8777,91.8227,164.2290,4.481026,0.1039054,0.30847564,65.9123,10/11.0/2023,2000,g 11.5,4.0
# From MPC 46101
153P/Ikeya-Zhang,e,28.3065,93.6191,34.4938,50.33371,0.0027600,0.98988860,0.0000,03/03.9472/2002,2000,g  9.0,4.0
# From MPEC 2022-K19
154P/Brewington,e,17.6335,343.0183,47.9524,4.795976,0.0938401,0.67617786,337.0613,10/11.0/2023,2000,g  2.5,12.0
# From MPEC 2022-YN2
155P/Shoemaker,e,6.4054,97.1626,14.5240,6.571202,0.0585109,0.72704779,83.4006,10/11.0/2023,2000,g 10.0,4.8
# From MPEC 2023-J29
156P/Russell-LINEAR,e,17.2712,35.3419,0.4923,3.462329,0.1529860,0.61520027,161.6358,10/11.0/2023,2000,g 15.5,2.0
# From MPEC 2023-HD1
157P/Tritton,e,12.4199,287.5316,155.0943,3.546247,0.1475878,0.55676279,58.4642,10/11.0/2023,2000,g 15.0,4.0
# From MPEC 2022-VC5
157P-B/Tritton,e,12.4260,153.9270,287.1183,3.101871,0.1804132,0.49983791,71.7927,10/11.0/2023,2000,g 15.7,4.0
# From MPEC 2023-T65
